[{"OBJECT_NAME":"OPS 1948","OBJECT_ID":"1979-086A","EPOCH":"2026-03-03T03:13:51.702816","MEAN_MOTION":1.0014382,"ECCENTRICITY":0.1311159,"INCLINATION":5.9503,"RA_OF_ASC_NODE":11.0613,"ARG_OF_PERICENTER":76.4494,"MEAN_ANOMALY":202.2356,"EPHEMERIS_TYPE":0,"CLASSIFICATION_TYPE":"U","NORAD_CAT_ID":11558,"ELEMENT_SET_NO":999,"REV_AT_EPOCH":2514,"BSTAR":0,"MEAN_MOTION_DOT":-2.06e-6,"MEAN_MOTION_DDOT":0},{"OBJECT_NAME":"TITAN 3C TRANSTAGE R/B","OBJECT_ID":"1979-086C","EPOCH":"2026-03-02T22:11:04.642656","MEAN_MOTION":0.99673408,"ECCENTRICITY":0.1301454,"INCLINATION":5.7733,"RA_OF_ASC_NODE":11.7681,"ARG_OF_PERICENTER":125.0325,"MEAN_ANOMALY":248.0673,"EPHEMERIS_TYPE":0,"CLASSIFICATION_TYPE":"U","NORAD_CAT_ID":11560,"ELEMENT_SET_NO":999,"REV_AT_EPOCH":2518,"BSTAR":0,"MEAN_MOTION_DOT":-1.06e-6,"MEAN_MOTION_DDOT":0},{"OBJECT_NAME":"EKRAN 4","OBJECT_ID":"1979-087A","EPOCH":"2026-03-03T02:31:41.376864","MEAN_MOTION":1.00305154,"ECCENTRICITY":0.0003209,"INCLINATION":5.858,"RA_OF_ASC_NODE":285.8552,"ARG_OF_PERICENTER":119.6694,"MEAN_ANOMALY":244.7786,"EPHEMERIS_TYPE":0,"CLASSIFICATION_TYPE":"U","NORAD_CAT_ID":11561,"ELEMENT_SET_NO":999,"REV_AT_EPOCH":4631,"BSTAR":0,"MEAN_MOTION_DOT":-2.69e-6,"MEAN_MOTION_DDOT":0},{"OBJECT_NAME":"SL-12 R/B(2)","OBJECT_ID":"1974-017F","EPOCH":"2026-03-03T03:49:38.807616","MEAN_MOTION":1.0100647,"ECCENTRICITY":0.0045241,"INCLINATION":0.9574,"RA_OF_ASC_NODE":254.2824,"ARG_OF_PERICENTER":85.5302,"MEAN_ANOMALY":123.4646,"EPHEMERIS_TYPE":0,"CLASSIFICATION_TYPE":"U","NORAD_CAT_ID":11567,"ELEMENT_SET_NO":999,"REV_AT_EPOCH":19160,"BSTAR":0,"MEAN_MOTION_DOT":-1.44e-6,"MEAN_MOTION_DDOT":0},{"OBJECT_NAME":"SL-12 R/B(2)","OBJECT_ID":"1975-123F","EPOCH":"2026-03-02T19:53:38.746752","MEAN_MOTION":1.00479133,"ECCENTRICITY":0.00129322,"INCLINATION":2.8189,"RA_OF_ASC_NODE":265.9411,"ARG_OF_PERICENTER":214.203,"MEAN_ANOMALY":136.5588,"EPHEMERIS_TYPE":0,"CLASSIFICATION_TYPE":"U","NORAD_CAT_ID":11568,"ELEMENT_SET_NO":999,"REV_AT_EPOCH":12092,"BSTAR":0,"MEAN_MOTION_DOT":-1.07e-6,"MEAN_MOTION_DDOT":0},{"OBJECT_NAME":"EKRAN 2 DEB","OBJECT_ID":"1977-092H","EPOCH":"2026-03-03T00:08:20.628384","MEAN_MOTION":1.00322533,"ECCENTRICITY":0.000713,"INCLINATION":4.4123,"RA_OF_ASC_NODE":275.4824,"ARG_OF_PERICENTER":288.2446,"MEAN_ANOMALY":345.7136,"EPHEMERIS_TYPE":0,"CLASSIFICATION_TYPE":"U","NORAD_CAT_ID":11581,"ELEMENT_SET_NO":999,"REV_AT_EPOCH":10329,"BSTAR":0,"MEAN_MOTION_DOT":1.28e-6,"MEAN_MOTION_DDOT":0},{"OBJECT_NAME":"TITAN 3C TRANSTAGE R/B","OBJECT_ID":"1979-098C","EPOCH":"2026-03-02T16:12:33.963840","MEAN_MOTION":0.95317969,"ECCENTRICITY":0.02957018,"INCLINATION":10.421,"RA_OF_ASC_NODE":306.4556,"ARG_OF_PERICENTER":74.3878,"MEAN_ANOMALY":100.3102,"EPHEMERIS_TYPE":0,"CLASSIFICATION_TYPE":"U","NORAD_CAT_ID":11623,"ELEMENT_SET_NO":999,"REV_AT_EPOCH":12157,"BSTAR":0,"MEAN_MOTION_DOT":-1.39e-6,"MEAN_MOTION_DDOT":0},{"OBJECT_NAME":"GORIZONT 3","OBJECT_ID":"1979-105A","EPOCH":"2026-03-03T02:29:26.592864","MEAN_MOTION":1.00197812,"ECCENTRICITY":0.0010785,"INCLINATION":6.1875,"RA_OF_ASC_NODE":288.8044,"ARG_OF_PERICENTER":271.2432,"MEAN_ANOMALY":81.2979,"EPHEMERIS_TYPE":0,"CLASSIFICATION_TYPE":"U","NORAD_CAT_ID":11648,"ELEMENT_SET_NO":999,"REV_AT_EPOCH":12141,"BSTAR":0,"MEAN_MOTION_DOT":-1.71e-6,"MEAN_MOTION_DDOT":0},{"OBJECT_NAME":"OPS 6393 (FLTSATCOM 3)","OBJECT_ID":"1980-004A","EPOCH":"2026-03-03T01:49:37.906752","MEAN_MOTION":1.00195003,"ECCENTRICITY":0.0021098,"INCLINATION":6.3884,"RA_OF_ASC_NODE":307.1015,"ARG_OF_PERICENTER":246.4327,"MEAN_ANOMALY":298.5932,"EPHEMERIS_TYPE":0,"CLASSIFICATION_TYPE":"U","NORAD_CAT_ID":11669,"ELEMENT_SET_NO":999,"REV_AT_EPOCH":16879,"BSTAR":0,"MEAN_MOTION_DOT":-3.08e-6,"MEAN_MOTION_DDOT":0},{"OBJECT_NAME":"SL-12 R/B(2)","OBJECT_ID":"1975-097F","EPOCH":"2026-03-03T03:49:38.807616","MEAN_MOTION":1.00094675,"ECCENTRICITY":0.0020925,"INCLINATION":2.6315,"RA_OF_ASC_NODE":263.5587,"ARG_OF_PERICENTER":222.5773,"MEAN_ANOMALY":327.5912,"EPHEMERIS_TYPE":0,"CLASSIFICATION_TYPE":"U","NORAD_CAT_ID":11676,"ELEMENT_SET_NO":999,"REV_AT_EPOCH":11807,"BSTAR":0,"MEAN_MOTION_DOT":3.8e-7,"MEAN_MOTION_DDOT":0},{"OBJECT_NAME":"RADUGA 6","OBJECT_ID":"1980-016A","EPOCH":"2026-03-03T01:52:21.656352","MEAN_MOTION":1.00199171,"ECCENTRICITY":0.0002643,"INCLINATION":5.9767,"RA_OF_ASC_NODE":287.6376,"ARG_OF_PERICENTER":341.7731,"MEAN_ANOMALY":355.2257,"EPHEMERIS_TYPE":0,"CLASSIFICATION_TYPE":"U","NORAD_CAT_ID":11708,"ELEMENT_SET_NO":999,"REV_AT_EPOCH":12109,"BSTAR":0,"MEAN_MOTION_DOT":-1.0e-6,"MEAN_MOTION_DDOT":0},{"OBJECT_NAME":"SL-6 R/B(2)","OBJECT_ID":"1980-050B","EPOCH":"2026-03-01T06:23:51.916704","MEAN_MOTION":1.99564878,"ECCENTRICITY":0.65437992,"INCLINATION":68.3797,"RA_OF_ASC_NODE":11.3205,"ARG_OF_PERICENTER":316.3417,"MEAN_ANOMALY":7.4135,"EPHEMERIS_TYPE":0,"CLASSIFICATION_TYPE":"U","NORAD_CAT_ID":11847,"ELEMENT_SET_NO":999,"REV_AT_EPOCH":33241,"BSTAR":0,"MEAN_MOTION_DOT":-1.143e-5,"MEAN_MOTION_DDOT":0},{"OBJECT_NAME":"COSMOS 1191","OBJECT_ID":"1980-057A","EPOCH":"2026-03-02T16:03:16.503264","MEAN_MOTION":2.00957874,"ECCENTRICITY":0.6652313,"INCLINATION":65.8652,"RA_OF_ASC_NODE":81.9508,"ARG_OF_PERICENTER":20.7357,"MEAN_ANOMALY":356.9719,"EPHEMERIS_TYPE":0,"CLASSIFICATION_TYPE":"U","NORAD_CAT_ID":11871,"ELEMENT_SET_NO":999,"REV_AT_EPOCH":24132,"BSTAR":0,"MEAN_MOTION_DOT":9.29e-6,"MEAN_MOTION_DDOT":0},{"OBJECT_NAME":"SL-6 R/B(2)","OBJECT_ID":"1980-057D","EPOCH":"2026-03-02T18:32:00.360960","MEAN_MOTION":1.9941633,"ECCENTRICITY":0.73013025,"INCLINATION":62.9185,"RA_OF_ASC_NODE":323.6003,"ARG_OF_PERICENTER":33.3387,"MEAN_ANOMALY":356.1866,"EPHEMERIS_TYPE":0,"CLASSIFICATION_TYPE":"U","NORAD_CAT_ID":11888,"ELEMENT_SET_NO":999,"REV_AT_EPOCH":33262,"BSTAR":0,"MEAN_MOTION_DOT":5.75e-6,"MEAN_MOTION_DDOT":0},{"OBJECT_NAME":"MOLNIYA 3-13","OBJECT_ID":"1980-063A","EPOCH":"2026-03-01T17:25:11.028576","MEAN_MOTION":2.00670547,"ECCENTRICITY":0.72402115,"INCLINATION":63.8165,"RA_OF_ASC_NODE":304.7824,"ARG_OF_PERICENTER":277.5078,"MEAN_ANOMALY":12.8495,"EPHEMERIS_TYPE":0,"CLASSIFICATION_TYPE":"U","NORAD_CAT_ID":11896,"ELEMENT_SET_NO":999,"REV_AT_EPOCH":33424,"BSTAR":0.00039570359,"MEAN_MOTION_DOT":1.57e-6,"MEAN_MOTION_DDOT":0},{"OBJECT_NAME":"SL-6 R/B(2)","OBJECT_ID":"1980-063D","EPOCH":"2026-02-28T21:34:17.614272","MEAN_MOTION":1.96860586,"ECCENTRICITY":0.73163161,"INCLINATION":63.6324,"RA_OF_ASC_NODE":35.0222,"ARG_OF_PERICENTER":277.5627,"MEAN_ANOMALY":12.2884,"EPHEMERIS_TYPE":0,"CLASSIFICATION_TYPE":"U","NORAD_CAT_ID":11909,"ELEMENT_SET_NO":999,"REV_AT_EPOCH":32749,"BSTAR":0,"MEAN_MOTION_DOT":-1.24e-6,"MEAN_MOTION_DDOT":0},{"OBJECT_NAME":"SL-12 R/B(2)","OBJECT_ID":"1978-118C","EPOCH":"2026-03-02T14:21:45.699840","MEAN_MOTION":1.01600782,"ECCENTRICITY":0.3004306,"INCLINATION":12.4652,"RA_OF_ASC_NODE":151.0538,"ARG_OF_PERICENTER":5.3339,"MEAN_ANOMALY":15.2327,"EPHEMERIS_TYPE":0,"CLASSIFICATION_TYPE":"U","NORAD_CAT_ID":11926,"ELEMENT_SET_NO":999,"REV_AT_EPOCH":17049,"BSTAR":0,"MEAN_MOTION_DOT":-1.15e-6,"MEAN_MOTION_DDOT":0}]
