OPS 1948                
1 11558U 79086A   26062.13462619 -.00000206  00000+0  00000+0 0  9995
2 11558   5.9503  11.0613 1311159  76.4494 202.2356  1.00143820 25142
TITAN 3C TRANSTAGE R/B  
1 11560U 79086C   26061.92435929 -.00000106  00000+0  00000+0 0  9997
2 11560   5.7733  11.7681 1301454 125.0325 248.0673  0.99673408 25182
EKRAN 4                 
1 11561U 79087A   26062.10534001 -.00000269  00000+0  00000+0 0  9991
2 11561   5.8580 285.8552 0003209 119.6694 244.7786  1.00305154 46318
SL-12 R/B(2)            
1 11567U 74017F   26062.15947694 -.00000144  00000+0  00000+0 0  9998
2 11567   0.9574 254.2824 0045241  85.5302 123.4646  1.01006470191605
SL-12 R/B(2)            
1 11568U 75123F   26061.82892068 -.00000107  00000+0  00000+0 0  9994
2 11568   2.8189 265.9411 0012932 214.2030 136.5588  1.00479133120926
EKRAN 2 DEB             
1 11581U 77092H   26062.00579431  .00000128  00000+0  00000+0 0  9995
2 11581   4.4123 275.4824 0007130 288.2446 345.7136  1.00322533103292
TITAN 3C TRANSTAGE R/B  
1 11623U 79098C   26061.67539310 -.00000139  00000+0  00000+0 0  9997
2 11623  10.4210 306.4556 0295701  74.3878 100.3102  0.95317969121575
GORIZONT 3              
1 11648U 79105A   26062.10378001 -.00000171  00000+0  00000+0 0  9996
2 11648   6.1875 288.8044 0010785 271.2432  81.2979  1.00197812121419
OPS 6393 (FLTSATCOM 3)  
1 11669U 80004A   26062.07613318 -.00000308  00000+0  00000+0 0  9990
2 11669   6.3884 307.1015 0021098 246.4327 298.5932  1.00195003168797
SL-12 R/B(2)            
1 11676U 75097F   26062.15947694  .00000038  00000+0  00000+0 0  9999
2 11676   2.6315 263.5587 0020925 222.5773 327.5912  1.00094675118070
RADUGA 6                
1 11708U 80016A   26062.07802843 -.00000100  00000+0  00000+0 0  9990
2 11708   5.9767 287.6376 0002643 341.7731 355.2257  1.00199171121094
SL-6 R/B(2)             
1 11847U 80050B   26060.26657311 -.00001143  00000+0  00000+0 0  9997
2 11847  68.3797  11.3205 6543799 316.3417   7.4135  1.99564878332413
COSMOS 1191             
1 11871U 80057A   26061.66894101  .00000929  00000+0  00000+0 0  9996
2 11871  65.8652  81.9508 6652313  20.7357 356.9719  2.00957874241327
SL-6 R/B(2)             
1 11888U 80057D   26061.77222640  .00000575  00000+0  00000+0 0  9996
2 11888  62.9185 323.6003 7301302  33.3387 356.1866  1.99416330332626
MOLNIYA 3-13            
1 11896U 80063A   26060.72582209  .00000157  00000+0  39570-3 0  9990
2 11896  63.8165 304.7824 7240211 277.5078  12.8495  2.00670547334243
SL-6 R/B(2)             
1 11909U 80063D   26059.89881498 -.00000124  00000+0  00000+0 0  9990
2 11909  63.6324  35.0222 7316316 277.5627  12.2884  1.96860586327492
SL-12 R/B(2)            
1 11926U 78118C   26061.59844560 -.00000115  00000+0  00000+0 0  9996
2 11926  12.4652 151.0538 3004306   5.3339  15.2327  1.01600782170499
